EUTELSAT QUANTUM        
1 49056U 21069B   25354.19211567  .00000150  00000+0  00000+0 0  9997
2 49056   0.0188  32.2661 0003330 246.9131 286.7168  1.00271951 16133
EUTELSAT KONNECT VHTS   
1 53765U 22110A   25354.15878257  .00000042  00000+0  00000+0 0  9998
2 53765   0.0642  98.8087 0002392 137.8855 272.2232  1.00276689  5030
EUTELSAT HOTBIRD 13F    
1 54048U 22134A   25354.19719263  .00000111  00000+0  00000+0 0  9991
2 54048   0.0482 295.6006 0002382  68.8406 168.5765  1.00272198 11585
EUTELSAT HOTBIRD 13G    
1 54225U 22146A   25353.76917890  .00000112  00000+0  00000+0 0  9990
2 54225   0.0515 225.8744 0001789 308.1908 204.4423  1.00272410  5660
EUTELSAT 10B            
1 54259U 22157A   25354.12525884  .00000093  00000+0  00000+0 0  9996
2 54259   0.0606  97.5404 0000675   8.9249  37.5953  1.00274144 11230
EUTELSAT 36D            
1 59346U 24059A   25353.92864237  .00000000  00000+0  00000+0 0  9994
2 59346   0.0247  22.0433 0000650 347.9809  88.8998  1.00272160  6350
